ONEWEB-0228             
1 48780U 21045P   24103.36503338 -.00000102  00000+0 -30625-3 0  9993
2 48780  87.9013  57.5450 0001800  80.7243 279.4091 13.15549979139699
